{"fetched_at":"2026-03-29T02:12:04Z","count":15717,"tles":[{"name":"STARLINK-6101","line1":"1 56115U 23046Y   26087.61257894  .00000017  00000+0  10317-4 0  9991","line2":"2 56115  43.0055  51.4257 0001147 254.6991 105.3734 15.26747671164965","category":"Starlink"}]}